INTELSAT 23 (IS-23)     
1 38867U 12057A   26196.90303556 -.00000295  00000+0  00000+0 0  9997
2 38867   0.0177  28.0219 0000467 205.7521 332.0704  1.00268345 50249
BEIDOU-2 G6             
1 38953U 12059A   26196.78727433 -.00000188  00000+0  00000+0 0  9996
2 38953   4.4912  73.2081 0008743 327.1453 260.6814  1.00273617 50197
LUCH-5B                 
1 38977U 12061A   26196.96173752 -.00000152  00000+0  00000+0 0  9995
2 38977  10.5442  49.5910 0003905 147.1555  67.0004  1.00270333 49891
YAMAL 300K              
1 38978U 12061B   26196.73589422  .00000000  00000+0  00000+0 0  9997
2 38978   0.0220  75.5118 0000609 163.6295 142.3135  1.00268724 49917
STAR ONE C3             
1 38991U 12062A   26196.82735596  .00000000  00000+0  00000+0 0  9998
2 38991   0.0259  58.3868 0002190  65.2536  32.8906  1.00270879 50057
EUTELSAT 21B            
1 38992U 12062B   26196.91776104  .00000119  00000+0  00000+0 0  9990
2 38992   0.0673  14.7134 0003247 107.0496 163.9451  1.00270637 50114
ECHOSTAR 16             
1 39008U 12065A   26196.12418443 -.00000291  00000+0  00000+0 0  9996
2 39008   0.0165  61.2237 0002136  47.2692 167.6845  1.00269664 49922
ZHONGXING-12            
1 39017U 12067A   26196.77683631 -.00000217  00000+0  00000+0 0  9990
2 39017   0.0355  93.9171 0002590  19.4857 187.3711  1.00271472 49796
EUTELSAT 70B            
1 39020U 12069A   26196.92746775 -.00000054  00000+0  00000+0 0  9991
2 39020   0.0609   2.3817 0003635 111.7804 223.9847  1.00271447 49791
YAMAL 402               
1 39022U 12070A   26196.92434773  .00000075  00000+0  00000+0 0  9999
2 39022   1.3366  83.7990 0003597  26.8215 210.7939  1.00271705 49682
SKYNET 5D               
1 39034U 12075A   26196.92391440  .00000089  00000+0  00000+0 0  9995
2 39034   0.0681 359.4462 0003420 124.6847 194.9814  1.00270488 49447
MEXSAT 3                
1 39035U 12075B   26196.89064149  .00000000  00000+0  00000+0 0  9998
2 39035   0.0205  61.0689 0001051  47.5280  30.9868  1.00268824  7341
TDRS 11                 
1 39070U 13004A   26196.87902811  .00000070  00000+0  00000+0 0  9992
2 39070   3.5625  31.7058 0004487  31.9727  12.3641  1.00279662 46985
AMAZONAS 3              
1 39078U 13006A   26196.83012931 -.00000293  00000+0  00000+0 0  9991
2 39078   0.0349 226.1748 0003312 285.9605  19.3775  1.00272135 45203
AZERSPACE 1             
1 39079U 13006B   26196.92261439  .00000000  00000+0  00000+0 0  9996
2 39079   0.0239  52.5084 0001846  97.0492 162.3371  1.00269819 49099
SBIRS GEO-2 (USA 241)   
1 39120U 13011A   26196.90364222 -.00000299  00000+0  00000+0 0  9992
2 39120   4.5495  52.5051 0002005  56.5754 100.1752  1.00271823 48823
EUTELSAT 117 WEST A     
1 39122U 13012A   26196.67640168 -.00000023  00000+0  00000+0 0  9990
2 39122   0.0496 272.0693 0002811 207.0795 301.0784  1.00274192 48718
ANIK G1                 
1 39127U 13014A   26196.86249803 -.00000084  00000+0  00000+0 0  9996
2 39127   0.0459 240.4893 0001689 244.9479  11.4547  1.00271470 48540
ZHONGXING-11            
1 39157U 13020A   26196.93284111 -.00000300  00000+0  00000+0 0  9996
2 39157   0.0566 276.6038 0001920 166.7273 284.1433  1.00269401 48189
EUTELSAT 7B             
1 39163U 13022A   26196.84358729  .00000037  00000+0  00000+0 0  9998
2 39163   0.0693 339.0408 0003263  66.9636 198.3743  1.00269593 48236
WGS F5 (USA 243)        
1 39168U 13024A   26196.90312222  .00000000  00000+0  00000+0 0  9990
2 39168   0.0239  65.3715 0000224 184.5715 316.4339  1.00268932 47460
SES-6                   
1 39172U 13026A   26196.90546222 -.00000272  00000+0  00000+0 0  9998
2 39172   0.0221 340.1276 0002580 114.9266 124.1534  1.00272752 48015
IRNSS-1A                
1 39199U 13034A   26191.72043649  .00000047  00000+0  00000+0 0  9995
2 39199  35.7704  63.5328 0017567 183.4462 356.2994  1.00281941 47601
MUOS-2                  
1 39206U 13036A   26196.80499586 -.00000025  00000+0  00000+0 0  9992
2 39206   5.0505  45.5541 0052750 176.3676 173.4775  1.00272497 47474
ALPHASAT                
1 39215U 13038A   26196.91845438  .00000123  00000+0  00000+0 0  9995
2 39215   2.9994   1.1219 0002167 136.3588 151.7880  1.00270019 44300
INSAT-3D                
1 39216U 13038B   26196.93916781 -.00000351  00000+0  00000+0 0  9992
2 39216   1.9984  82.1751 0000527  79.1322 240.0595  1.00268173 47369
WGS F6 (USA 244)        
1 39222U 13041A   26196.60155399  .00000079  00000+0  00000+0 0  9993
2 39222   0.0178  39.7752 0000194  95.3134 239.7234  1.00272417 46349
ES'HAIL 1               
1 39233U 13044A   26196.91854104  .00000133  00000+0  00000+0 0  9993
2 39233   0.0494 347.1522 0002189 119.1851 183.6092  1.00268325 46915
GSAT-7                  
1 39234U 13044B   26196.92816109 -.00000087  00000+0  00000+0 0  9997
2 39234   0.1529  89.5270 0003189 176.5344  75.7931  1.00271396 45541
AMOS-4                  
1 39237U 13045A   26196.92634108 -.00000003  00000+0  00000+0 0  9996
2 39237   0.0270 252.5896 0002158 192.2426 247.4125  1.00270778 47248
AEHF-3 (USA 246)        
1 39256U 13050A   26196.67510167  .00000016  00000+0  00000+0 0  9996
2 39256   5.3616  66.9217 0088486 187.6912 157.6637  1.00271162 45933
ASTRA 2E                
1 39285U 13056A   26196.91914771  .00000140  00000+0  00000+0 0  9998
2 39285   0.0755 314.1905 0002673 154.3859 184.5476  1.00269322 46709
