OBJECT_NAME,OBJECT_ID,EPOCH,MEAN_MOTION,ECCENTRICITY,INCLINATION,RA_OF_ASC_NODE,ARG_OF_PERICENTER,MEAN_ANOMALY,EPHEMERIS_TYPE,CLASSIFICATION_TYPE,NORAD_CAT_ID,ELEMENT_SET_NO,REV_AT_EPOCH,BSTAR,MEAN_MOTION_DOT,MEAN_MOTION_DDOT
INTELSAT 23 (IS-23),2012-057A,2026-07-15T21:40:22.272384,1.00268345,.00004672,0.0177,28.0219,205.7521,332.0704,0,U,38867,999,5024,0,-.295E-5,0
BEIDOU-2 G6,2012-059A,2026-07-15T18:53:40.502112,1.00273617,.00087439,4.4912,73.2081,327.1453,260.6814,0,U,38953,999,5019,0,-.188E-5,0
LUCH-5B,2012-061A,2026-07-15T23:04:54.121728,1.00270333,.00039053,10.5442,49.5910,147.1555,67.0004,0,U,38977,999,4989,0,-.152E-5,0
YAMAL 300K,2012-061B,2026-07-15T17:39:41.260608,1.00268724,.00006096,0.0220,75.5118,163.6295,142.3135,0,U,38978,999,4991,0,0,0
STAR ONE C3,2012-062A,2026-07-15T19:51:23.554944,1.00270879,.000219,0.0259,58.3868,65.2536,32.8906,0,U,38991,999,5005,0,0,0
EUTELSAT 21B,2012-062B,2026-07-15T22:01:34.553856,1.00270637,.00032477,0.0673,14.7134,107.0496,163.9451,0,U,38992,999,5011,0,.119E-5,0
ECHOSTAR 16,2012-065A,2026-07-15T02:58:49.534752,1.00269664,.00021365,0.0165,61.2237,47.2692,167.6845,0,U,39008,999,4992,0,-.291E-5,0
ZHONGXING-12,2012-067A,2026-07-15T18:38:38.657184,1.00271472,.00025908,0.0355,93.9171,19.4857,187.3711,0,U,39017,999,4979,0,-.217E-5,0
EUTELSAT 70B,2012-069A,2026-07-15T22:15:33.213600,1.00271447,.00036355,0.0609,2.3817,111.7804,223.9847,0,U,39020,999,4979,0,-.54E-6,0
YAMAL 402,2012-070A,2026-07-15T22:11:03.643872,1.00271705,.00035975,1.3366,83.7990,26.8215,210.7939,0,U,39022,999,4968,0,.75E-6,0
SKYNET 5D,2012-075A,2026-07-15T22:10:26.204160,1.00270488,.00034209,0.0681,359.4462,124.6847,194.9814,0,U,39034,999,4944,0,.89E-6,0
MEXSAT 3,2012-075B,2026-07-15T21:22:31.424736,1.00268824,.00010518,0.0205,61.0689,47.5280,30.9868,0,U,39035,999,734,0,0,0
TDRS 11,2013-004A,2026-07-15T21:05:48.028704,1.00279662,.00044872,3.5625,31.7058,31.9727,12.3641,0,U,39070,999,4698,0,.7E-6,0
AMAZONAS 3,2013-006A,2026-07-15T19:55:23.172384,1.00272135,.00033122,0.0349,226.1748,285.9605,19.3775,0,U,39078,999,4520,0,-.293E-5,0
AZERSPACE 1,2013-006B,2026-07-15T22:08:33.883296,1.00269819,.0001846,0.0239,52.5084,97.0492,162.3371,0,U,39079,999,4909,0,0,0
SBIRS GEO-2 (USA 241),2013-011A,2026-07-15T21:41:14.687808,1.00271823,.00020051,4.5495,52.5051,56.5754,100.1752,0,U,39120,999,4882,0,-.299E-5,0
EUTELSAT 117 WEST A,2013-012A,2026-07-15T16:14:01.105152,1.00274192,.00028113,0.0496,272.0693,207.0795,301.0784,0,U,39122,999,4871,0,-.23E-6,0
ANIK G1,2013-014A,2026-07-15T20:41:59.829792,1.00271470,.00016895,0.0459,240.4893,244.9479,11.4547,0,U,39127,999,4854,0,-.84E-6,0
ZHONGXING-11,2013-020A,2026-07-15T22:23:17.471904,1.00269401,.00019202,0.0566,276.6038,166.7273,284.1433,0,U,39157,999,4818,0,-.3E-5,0
EUTELSAT 7B,2013-022A,2026-07-15T20:14:45.941856,1.00269593,.00032635,0.0693,339.0408,66.9636,198.3743,0,U,39163,999,4823,0,.37E-6,0
WGS F5 (USA 243),2013-024A,2026-07-15T21:40:29.759808,1.00268932,.00002242,0.0239,65.3715,184.5715,316.4339,0,U,39168,999,4746,0,0,0
SES-6,2013-026A,2026-07-15T21:43:51.935808,1.00272752,.00025804,0.0221,340.1276,114.9266,124.1534,0,U,39172,999,4801,0,-.272E-5,0
IRNSS-1A,2013-034A,2026-07-10T17:17:25.712736,1.00281941,.0017567,35.7704,63.5328,183.4462,356.2994,0,U,39199,999,4760,0,.47E-6,0
MUOS-2,2013-036A,2026-07-15T19:19:11.642304,1.00272497,.005275,5.0505,45.5541,176.3676,173.4775,0,U,39206,999,4747,0,-.25E-6,0
ALPHASAT,2013-038A,2026-07-15T22:02:34.458432,1.00270019,.00021679,2.9994,1.1219,136.3588,151.7880,0,U,39215,999,4430,0,.123E-5,0
INSAT-3D,2013-038B,2026-07-15T22:32:24.098784,1.00268173,.00005273,1.9984,82.1751,79.1322,240.0595,0,U,39216,999,4736,0,-.351E-5,0
WGS F6 (USA 244),2013-041A,2026-07-15T14:26:14.264736,1.00272417,.00001944,0.0178,39.7752,95.3134,239.7234,0,U,39222,999,4634,0,.79E-6,0
ES'HAIL 1,2013-044A,2026-07-15T22:02:41.945856,1.00268325,.0002189,0.0494,347.1522,119.1851,183.6092,0,U,39233,999,4691,0,.133E-5,0
GSAT-7,2013-044B,2026-07-15T22:16:33.118176,1.00271396,.00031892,0.1529,89.5270,176.5344,75.7931,0,U,39234,999,4554,0,-.87E-6,0
AMOS-4,2013-045A,2026-07-15T22:13:55.869312,1.00270778,.0002158,0.0270,252.5896,192.2426,247.4125,0,U,39237,999,4724,0,-.3E-7,0
AEHF-3 (USA 246),2013-050A,2026-07-15T16:12:08.784288,1.00271162,.00884864,5.3616,66.9217,187.6912,157.6637,0,U,39256,999,4593,0,.16E-6,0
ASTRA 2E,2013-056A,2026-07-15T22:03:34.362144,1.00269322,.00026733,0.0755,314.1905,154.3859,184.5476,0,U,39285,999,4670,0,.14E-5,0
